{"type": "FeatureCollection", "features": [ {"type": "Feature", "properties": {"norad_id": 34529, "name": "IRIDIUM 33 DEB", "group": "iridium-33-debris", "lat": -55.01266343932322, "lon": 27.22939629878808, "alt_km": 766.9587091013054, "timestamp": "2025-12-19T16:54:44.647438+00:00", "meta": {"OBJECT_NAME": "IRIDIUM 33 DEB", "OBJECT_ID": "1997-051HW", "EPOCH": "2025-12-19T02:09:55.125504", "MEAN_MOTION": 14.40620588, "ECCENTRICITY": 0.00055554, "INCLINATION": 86.3636, "RA_OF_ASC_NODE": 32.7046, "ARG_OF_PERICENTER": 158.1797, "MEAN_ANOMALY": 201.964, "EPHEMERIS_TYPE": 0, "CLASSIFICATION_TYPE": "U", "NORAD_CAT_ID": 34529, "ELEMENT_SET_NO": 999, "REV_AT_EPOCH": 88233, "BSTAR": 9.0176019e-05, "MEAN_MOTION_DOT": 3.07e-06, "MEAN_MOTION_DDOT": 0}, "tle": {"line1": "1 34529U 97051HW  25353.09022136  .00000307  00000+0  90176-4 0  9992", "line2": "2 34529  86.3636  32.7046 0005555 158.1797 201.9640 14.40620588882331"}}, "geometry": {"type": "Point", "coordinates": [27.22939629878808, -55.01266343932322]}}, {"type": "Feature", "properties": {"norad_id": 34538, "name": "IRIDIUM 33 DEB", "group": "iridium-33-debris", "lat": -13.059779852096266, "lon": -176.62882804165682, "alt_km": 762.485038597416, "timestamp": "2025-12-19T16:54:44.647449+00:00", "meta": {"OBJECT_NAME": "IRIDIUM 33 DEB", "OBJECT_ID": "1997-051JF", "EPOCH": "2025-12-18T18:39:10.772064", "MEAN_MOTION": 14.42682193, "ECCENTRICITY": 0.00322699, "INCLINATION": 86.2762, "RA_OF_ASC_NODE": 2.9117, "ARG_OF_PERICENTER": 307.2305, "MEAN_ANOMALY": 112.1518, "EPHEMERIS_TYPE": 0, "CLASSIFICATION_TYPE": "U", "NORAD_CAT_ID": 34538, "ELEMENT_SET_NO": 999, "REV_AT_EPOCH": 87843, "BSTAR": 0.00069403531, "MEAN_MOTION_DOT": 2.341e-05, "MEAN_MOTION_DDOT": 0}, "tle": {"line1": "1 34538U 97051JF  25352.77720801  .00002341  00000+0  69404-3 0  9999", "line2": "2 34538  86.2762   2.9117 0032269 307.2305 112.1518 14.42682193878437"}}, "geometry": {"type": "Point", "coordinates": [-176.62882804165682, -13.059779852096266]}}, {"type": "Feature", "properties": {"norad_id": 34540, "name": "IRIDIUM 33 DEB", "group": "iridium-33-debris", "lat": -9.408001668950657, "lon": -56.19096221670218, "alt_km": 657.8263230451776, "timestamp": "2025-12-19T16:54:44.647460+00:00", "meta": {"OBJECT_NAME": "IRIDIUM 33 DEB", "OBJECT_ID": "1997-051JH", "EPOCH": "2025-12-18T08:57:29.352960", "MEAN_MOTION": 14.75435184, "ECCENTRICITY": 0.00173002, "INCLINATION": 86.3103, "RA_OF_ASC_NODE": 305.0304, "ARG_OF_PERICENTER": 139.8381, "MEAN_ANOMALY": 343.587, "EPHEMERIS_TYPE": 0, "CLASSIFICATION_TYPE": "U", "NORAD_CAT_ID": 34540, "ELEMENT_SET_NO": 999, "REV_AT_EPOCH": 89104, "BSTAR": 0.0013410572, "MEAN_MOTION_DOT": 9.16e-05, "MEAN_MOTION_DDOT": 0}, "tle": {"line1": "1 34540U 97051JH  25352.37325640  .00009160  00000+0  13411-2 0  9992", "line2": "2 34540  86.3103 305.0304 0017300 139.8381 343.5870 14.75435184891042"}}, "geometry": {"type": "Point", "coordinates": [-56.19096221670218, -9.408001668950657]}}, {"type": "Feature", "properties": {"norad_id": 34648, "name": "IRIDIUM 33 DEB", "group": "iridium-33-debris", "lat": -17.715945636234096, "lon": -82.02194451203854, "alt_km": 801.9050914232221, "timestamp": "2025-12-19T16:54:44.647470+00:00", "meta": {"OBJECT_NAME": "IRIDIUM 33 DEB", "OBJECT_ID": "1997-051JZ", "EPOCH": "2025-12-18T13:46:37.352352", "MEAN_MOTION": 14.1166623, "ECCENTRICITY": 0.01808845, "INCLINATION": 86.3904, "RA_OF_ASC_NODE": 279.59, "ARG_OF_PERICENTER": 280.6676, "MEAN_ANOMALY": 77.4184, "EPHEMERIS_TYPE": 0, "CLASSIFICATION_TYPE": "U", "NORAD_CAT_ID": 34648, "ELEMENT_SET_NO": 999, "REV_AT_EPOCH": 85043, "BSTAR": 0.0055375481, "MEAN_MOTION_DOT": 0.00011772, "MEAN_MOTION_DDOT": 0}, "tle": {"line1": "1 34648U 97051JZ  25352.57404343  .00011772  00000+0  55375-2 0  9998", "line2": "2 34648  86.3904 279.5900 0180884 280.6676  77.4184 14.11666230850434"}}, "geometry": {"type": "Point", "coordinates": [-82.02194451203854, -17.715945636234096]}}, {"type": "Feature", "properties": {"norad_id": 34651, "name": "IRIDIUM 33 DEB", "group": "iridium-33-debris", "lat": 34.402672911199524, "lon": 140.16605589988544, "alt_km": 888.8063366396764, "timestamp": "2025-12-19T16:54:44.647480+00:00", "meta": {"OBJECT_NAME": "IRIDIUM 33 DEB", "OBJECT_ID": "1997-051KC", "EPOCH": "2025-12-19T03:16:23.206080", "MEAN_MOTION": 14.25915494, "ECCENTRICITY": 0.0142225, "INCLINATION": 86.2827, "RA_OF_ASC_NODE": 137.8563, "ARG_OF_PERICENTER": 183.725, "MEAN_ANOMALY": 176.2898, "EPHEMERIS_TYPE": 0, "CLASSIFICATION_TYPE": "U", "NORAD_CAT_ID": 34651, "ELEMENT_SET_NO": 999, "REV_AT_EPOCH": 85987, "BSTAR": 0.0023945655, "MEAN_MOTION_DOT": 6.363e-05, "MEAN_MOTION_DDOT": 0}, "tle": {"line1": "1 34651U 97051KC  25353.13637970  .00006363  00000+0  23946-2 0  9998", "line2": "2 34651  86.2827 137.8563 0142225 183.7250 176.2898 14.25915494859871"}}, "geometry": {"type": "Point", "coordinates": [140.16605589988544, 34.402672911199524]}}, {"type": "Feature", "properties": {"norad_id": 34652, "name": "IRIDIUM 33 DEB", "group": "iridium-33-debris", "lat": -85.078134149032, "lon": -71.2715972984833, "alt_km": 675.7379284674016, "timestamp": "2025-12-19T16:54:44.647491+00:00", "meta": {"OBJECT_NAME": "IRIDIUM 33 DEB", "OBJECT_ID": "1997-051KD", "EPOCH": "2025-12-18T17:14:29.252832", "MEAN_MOTION": 14.62111337, "ECCENTRICITY": 0.0025564, "INCLINATION": 86.3309, "RA_OF_ASC_NODE": 337.3391, "ARG_OF_PERICENTER": 276.3765, "MEAN_ANOMALY": 208.8285, "EPHEMERIS_TYPE": 0, "CLASSIFICATION_TYPE": "U", "NORAD_CAT_ID": 34652, "ELEMENT_SET_NO": 999, "REV_AT_EPOCH": 88571, "BSTAR": 0.00069226917, "MEAN_MOTION_DOT": 3.516e-05, "MEAN_MOTION_DDOT": 0}, "tle": {"line1": "1 34652U 97051KD  25352.71839413  .00003516  00000+0  69227-3 0  9998", "line2": "2 34652  86.3309 337.3391 0025564 276.3765 208.8285 14.62111337885719"}}, "geometry": {"type": "Point", "coordinates": [-71.2715972984833, -85.078134149032]}}, {"type": "Feature", "properties": {"norad_id": 34690, "name": "IRIDIUM 33 DEB", "group": "iridium-33-debris", "lat": -38.787177158792204, "lon": 31.04656022183106, "alt_km": 710.4848220527938, "timestamp": "2025-12-19T16:54:44.647502+00:00", "meta": {"OBJECT_NAME": "IRIDIUM 33 DEB", "OBJECT_ID": "1997-051KM", "EPOCH": "2025-12-19T02:30:15.635232", "MEAN_MOTION": 14.55118004, "ECCENTRICITY": 0.00100928, "INCLINATION": 86.3778, "RA_OF_ASC_NODE": 34.2255, "ARG_OF_PERICENTER": 8.472, "MEAN_ANOMALY": 50.0408, "EPHEMERIS_TYPE": 0, "CLASSIFICATION_TYPE": "U", "NORAD_CAT_ID": 34690, "ELEMENT_SET_NO": 999, "REV_AT_EPOCH": 88187, "BSTAR": 0.00032814485, "MEAN_MOTION_DOT": 1.438e-05, "MEAN_MOTION_DDOT": 0}, "tle": {"line1": "1 34690U 97051KM  25353.10434763  .00001438  00000+0  32814-3 0  9996", "line2": "2 34690  86.3778  34.2255 0010092   8.4720  50.0408 14.55118004881875"}}, "geometry": {"type": "Point", "coordinates": [31.04656022183106, -38.787177158792204]}}, {"type": "Feature", "properties": {"norad_id": 34693, "name": "IRIDIUM 33 DEB", "group": "iridium-33-debris", "lat": 53.89881819983894, "lon": -54.55609069760802, "alt_km": 464.1914607279123, "timestamp": "2025-12-19T16:54:44.647512+00:00", "meta": {"OBJECT_NAME": "IRIDIUM 33 DEB", "OBJECT_ID": "1997-051KQ", "EPOCH": "2025-12-18T20:30:35.333568", "MEAN_MOTION": 15.29367567, "ECCENTRICITY": 0.0012164, "INCLINATION": 86.305, "RA_OF_ASC_NODE": 300.783, "ARG_OF_PERICENTER": 41.8212, "MEAN_ANOMALY": 14.7661, "EPHEMERIS_TYPE": 0, "CLASSIFICATION_TYPE": "U", "NORAD_CAT_ID": 34693, "ELEMENT_SET_NO": 999, "REV_AT_EPOCH": 89008, "BSTAR": 0.0035831985, "MEAN_MOTION_DOT": 0.00103466, "MEAN_MOTION_DDOT": 0}, "tle": {"line1": "1 34693U 97051KQ  25352.85457562  .00103466  00000+0  35832-2 0  9998", "line2": "2 34693  86.3050 300.7830 0012164  41.8212  14.7661 15.29367567890083"}}, "geometry": {"type": "Point", "coordinates": [-54.55609069760802, 53.89881819983894]}}, {"type": "Feature", "properties": {"norad_id": 34696, "name": "IRIDIUM 33 DEB", "group": "iridium-33-debris", "lat": -6.040529888662569, "lon": 23.87643205745113, "alt_km": 724.5762894079835, "timestamp": "2025-12-19T16:54:44.647522+00:00", "meta": {"OBJECT_NAME": "IRIDIUM 33 DEB", "OBJECT_ID": "1997-051KT", "EPOCH": "2025-12-19T02:26:16.937952", "MEAN_MOTION": 14.65392793, "ECCENTRICITY": 0.00738562, "INCLINATION": 86.184, "RA_OF_ASC_NODE": 24.5618, "ARG_OF_PERICENTER": 146.0479, "MEAN_ANOMALY": 268.8933, "EPHEMERIS_TYPE": 0, "CLASSIFICATION_TYPE": "U", "NORAD_CAT_ID": 34696, "ELEMENT_SET_NO": 999, "REV_AT_EPOCH": 86766, "BSTAR": 0.0030854988, "MEAN_MOTION_DOT": 0.00017409, "MEAN_MOTION_DDOT": 0}, "tle": {"line1": "1 34696U 97051KT  25353.10158493  .00017409  00000+0  30855-2 0  9992", "line2": "2 34696  86.1840  24.5618 0073856 146.0479 268.8933 14.65392793867664"}}, "geometry": {"type": "Point", "coordinates": [23.87643205745113, -6.040529888662569]}}, {"type": "Feature", "properties": {"norad_id": 34765, "name": "IRIDIUM 33 DEB", "group": "iridium-33-debris", "lat": -16.382903394701156, "lon": 28.694359108619675, "alt_km": 772.3242496856719, "timestamp": "2025-12-19T16:54:44.647533+00:00", "meta": {"OBJECT_NAME": "IRIDIUM 33 DEB", "OBJECT_ID": "1997-051LJ", "EPOCH": "2025-12-18T13:21:25.941600", "MEAN_MOTION": 14.40479279, "ECCENTRICITY": 0.00160914, "INCLINATION": 86.3386, "RA_OF_ASC_NODE": 30.2656, "ARG_OF_PERICENTER": 191.4295, "MEAN_ANOMALY": 322.071, "EPHEMERIS_TYPE": 0, "CLASSIFICATION_TYPE": "U", "NORAD_CAT_ID": 34765, "ELEMENT_SET_NO": 999, "REV_AT_EPOCH": 87697, "BSTAR": 0.00029987235, "MEAN_MOTION_DOT": 9.74e-06, "MEAN_MOTION_DDOT": 0}, "tle": {"line1": "1 34765U 97051LJ  25352.55655025  .00000974  00000+0  29987-3 0  9994", "line2": "2 34765  86.3386  30.2656 0016091 191.4295 322.0710 14.40479279876970"}}, "geometry": {"type": "Point", "coordinates": [28.694359108619675, -16.382903394701156]}}]}